[{"OBJECT_NAME":"STARLINK-36363","OBJECT_ID":"2026-035M","EPOCH":"2026-03-12T06:00:00.999648","MEAN_MOTION":15.80780245,"ECCENTRICITY":7.614e-5,"INCLINATION":97.2742,"RA_OF_ASC_NODE":3.7481,"ARG_OF_PERICENTER":131.9879,"MEAN_ANOMALY":288.9783,"EPHEMERIS_TYPE":0,"CLASSIFICATION_TYPE":"U","NORAD_CAT_ID":67890,"ELEMENT_SET_NO":999,"REV_AT_EPOCH":416,"BSTAR":0.00054920524,"MEAN_MOTION_DOT":0.0010617,"MEAN_MOTION_DDOT":0},{"OBJECT_NAME":"STARLINK-36816","OBJECT_ID":"2026-035N","EPOCH":"2026-03-12T06:00:00.999648","MEAN_MOTION":15.80811132,"ECCENTRICITY":8.975e-5,"INCLINATION":97.2729,"RA_OF_ASC_NODE":3.7693,"ARG_OF_PERICENTER":95.3304,"MEAN_ANOMALY":25.4393,"EPHEMERIS_TYPE":0,"CLASSIFICATION_TYPE":"U","NORAD_CAT_ID":67891,"ELEMENT_SET_NO":999,"REV_AT_EPOCH":406,"BSTAR":0.00026412553,"MEAN_MOTION_DOT":0.00050733,"MEAN_MOTION_DDOT":0},{"OBJECT_NAME":"STARLINK-36813","OBJECT_ID":"2026-035P","EPOCH":"2026-03-12T06:00:00.999648","MEAN_MOTION":15.80761849,"ECCENTRICITY":0.00015996,"INCLINATION":97.2706,"RA_OF_ASC_NODE":3.7573,"ARG_OF_PERICENTER":91.8419,"MEAN_ANOMALY":3.3108,"EPHEMERIS_TYPE":0,"CLASSIFICATION_TYPE":"U","NORAD_CAT_ID":67892,"ELEMENT_SET_NO":999,"REV_AT_EPOCH":417,"BSTAR":0.00074329961,"MEAN_MOTION_DOT":0.00144257,"MEAN_MOTION_DDOT":0},{"OBJECT_NAME":"STARLINK-36803","OBJECT_ID":"2026-035Q","EPOCH":"2026-03-12T06:00:00.999648","MEAN_MOTION":15.80773421,"ECCENTRICITY":3.484e-5,"INCLINATION":97.2732,"RA_OF_ASC_NODE":3.7505,"ARG_OF_PERICENTER":84.1005,"MEAN_ANOMALY":345.4029,"EPHEMERIS_TYPE":0,"CLASSIFICATION_TYPE":"U","NORAD_CAT_ID":67893,"ELEMENT_SET_NO":999,"REV_AT_EPOCH":416,"BSTAR":0.00066850236,"MEAN_MOTION_DOT":0.00129573,"MEAN_MOTION_DDOT":0},{"OBJECT_NAME":"STARLINK-36846","OBJECT_ID":"2026-035R","EPOCH":"2026-03-12T06:00:00.999648","MEAN_MOTION":15.80786633,"ECCENTRICITY":0.00015756,"INCLINATION":97.2726,"RA_OF_ASC_NODE":3.7536,"ARG_OF_PERICENTER":101.5571,"MEAN_ANOMALY":336.511,"EPHEMERIS_TYPE":0,"CLASSIFICATION_TYPE":"U","NORAD_CAT_ID":67894,"ELEMENT_SET_NO":999,"REV_AT_EPOCH":416,"BSTAR":0.00041080958,"MEAN_MOTION_DOT":0.0007916,"MEAN_MOTION_DDOT":0},{"OBJECT_NAME":"STARLINK-36866","OBJECT_ID":"2026-035S","EPOCH":"2026-03-12T06:00:00.999648","MEAN_MOTION":15.80839546,"ECCENTRICITY":8.71e-5,"INCLINATION":97.2715,"RA_OF_ASC_NODE":3.755,"ARG_OF_PERICENTER":117.1439,"MEAN_ANOMALY":325.1772,"EPHEMERIS_TYPE":0,"CLASSIFICATION_TYPE":"U","NORAD_CAT_ID":67895,"ELEMENT_SET_NO":999,"REV_AT_EPOCH":416,"BSTAR":-4.7932468e-5,"MEAN_MOTION_DOT":-9.322e-5,"MEAN_MOTION_DDOT":0},{"OBJECT_NAME":"STARLINK-36877","OBJECT_ID":"2026-035T","EPOCH":"2026-03-12T06:00:00.999648","MEAN_MOTION":15.80776703,"ECCENTRICITY":0.00012829,"INCLINATION":97.2728,"RA_OF_ASC_NODE":3.7518,"ARG_OF_PERICENTER":86.702,"MEAN_ANOMALY":347.0976,"EPHEMERIS_TYPE":0,"CLASSIFICATION_TYPE":"U","NORAD_CAT_ID":67896,"ELEMENT_SET_NO":999,"REV_AT_EPOCH":416,"BSTAR":0.00050774949,"MEAN_MOTION_DOT":0.00098039,"MEAN_MOTION_DDOT":0},{"OBJECT_NAME":"STARLINK-36870","OBJECT_ID":"2026-035U","EPOCH":"2026-03-12T06:00:00.999648","MEAN_MOTION":15.80876763,"ECCENTRICITY":5.187e-5,"INCLINATION":97.2713,"RA_OF_ASC_NODE":3.7564,"ARG_OF_PERICENTER":99.2868,"MEAN_ANOMALY":347.2804,"EPHEMERIS_TYPE":0,"CLASSIFICATION_TYPE":"U","NORAD_CAT_ID":67897,"ELEMENT_SET_NO":999,"REV_AT_EPOCH":416,"BSTAR":-0.00015315726,"MEAN_MOTION_DOT":-0.00029458,"MEAN_MOTION_DDOT":0},{"OBJECT_NAME":"STARLINK-36810","OBJECT_ID":"2026-035V","EPOCH":"2026-03-12T06:00:00.999648","MEAN_MOTION":15.80797038,"ECCENTRICITY":0.00010707,"INCLINATION":97.2714,"RA_OF_ASC_NODE":3.7573,"ARG_OF_PERICENTER":77.1767,"MEAN_ANOMALY":13.7007,"EPHEMERIS_TYPE":0,"CLASSIFICATION_TYPE":"U","NORAD_CAT_ID":67898,"ELEMENT_SET_NO":999,"REV_AT_EPOCH":417,"BSTAR":0.00036809486,"MEAN_MOTION_DOT":0.00070878,"MEAN_MOTION_DDOT":0},{"OBJECT_NAME":"STARLINK-36878","OBJECT_ID":"2026-035W","EPOCH":"2026-03-12T06:00:00.999648","MEAN_MOTION":15.80839552,"ECCENTRICITY":7.399e-5,"INCLINATION":97.2711,"RA_OF_ASC_NODE":3.7608,"ARG_OF_PERICENTER":139.6644,"MEAN_ANOMALY":319.7046,"EPHEMERIS_TYPE":0,"CLASSIFICATION_TYPE":"U","NORAD_CAT_ID":67899,"ELEMENT_SET_NO":999,"REV_AT_EPOCH":417,"BSTAR":0.00028549158,"MEAN_MOTION_DOT":0.00054946,"MEAN_MOTION_DDOT":0},{"OBJECT_NAME":"STARLINK-36361","OBJECT_ID":"2026-035X","EPOCH":"2026-03-12T06:00:00.999648","MEAN_MOTION":15.80773738,"ECCENTRICITY":0.00014344,"INCLINATION":97.273,"RA_OF_ASC_NODE":3.7629,"ARG_OF_PERICENTER":92.416,"MEAN_ANOMALY":11.2774,"EPHEMERIS_TYPE":0,"CLASSIFICATION_TYPE":"U","NORAD_CAT_ID":67900,"ELEMENT_SET_NO":999,"REV_AT_EPOCH":417,"BSTAR":0.00066098044,"MEAN_MOTION_DOT":0.00128095,"MEAN_MOTION_DDOT":0},{"OBJECT_NAME":"STARLINK-36336","OBJECT_ID":"2026-035Y","EPOCH":"2026-03-12T06:00:00.999648","MEAN_MOTION":15.8083854,"ECCENTRICITY":0.0001486,"INCLINATION":97.2737,"RA_OF_ASC_NODE":3.7697,"ARG_OF_PERICENTER":91.3062,"MEAN_ANOMALY":25.1925,"EPHEMERIS_TYPE":0,"CLASSIFICATION_TYPE":"U","NORAD_CAT_ID":67901,"ELEMENT_SET_NO":999,"REV_AT_EPOCH":421,"BSTAR":5.8968974e-5,"MEAN_MOTION_DOT":0.0001118,"MEAN_MOTION_DDOT":0},{"OBJECT_NAME":"STARLINK-36876","OBJECT_ID":"2026-035Z","EPOCH":"2026-03-12T06:00:00.999648","MEAN_MOTION":15.80772781,"ECCENTRICITY":0.00014106,"INCLINATION":97.2737,"RA_OF_ASC_NODE":3.7663,"ARG_OF_PERICENTER":96.7873,"MEAN_ANOMALY":11.1777,"EPHEMERIS_TYPE":0,"CLASSIFICATION_TYPE":"U","NORAD_CAT_ID":67902,"ELEMENT_SET_NO":999,"REV_AT_EPOCH":417,"BSTAR":0.00068457804,"MEAN_MOTION_DOT":0.00132738,"MEAN_MOTION_DDOT":0},{"OBJECT_NAME":"STARLINK-36257","OBJECT_ID":"2026-035AA","EPOCH":"2026-03-12T06:00:00.999648","MEAN_MOTION":15.80776078,"ECCENTRICITY":9.391e-5,"INCLINATION":97.2736,"RA_OF_ASC_NODE":3.7668,"ARG_OF_PERICENTER":102.4003,"MEAN_ANOMALY":9.8325,"EPHEMERIS_TYPE":0,"CLASSIFICATION_TYPE":"U","NORAD_CAT_ID":67903,"ELEMENT_SET_NO":999,"REV_AT_EPOCH":421,"BSTAR":0.00069710283,"MEAN_MOTION_DOT":0.00135226,"MEAN_MOTION_DDOT":0},{"OBJECT_NAME":"STARLINK-36814","OBJECT_ID":"2026-036A","EPOCH":"2026-03-12T06:00:00.999648","MEAN_MOTION":15.64909628,"ECCENTRICITY":0.0001778,"INCLINATION":42.9991,"RA_OF_ASC_NODE":234.4331,"ARG_OF_PERICENTER":267.0714,"MEAN_ANOMALY":40.0351,"EPHEMERIS_TYPE":0,"CLASSIFICATION_TYPE":"U","NORAD_CAT_ID":67904,"ELEMENT_SET_NO":999,"REV_AT_EPOCH":405,"BSTAR":-0.021837277,"MEAN_MOTION_DOT":-0.0194149,"MEAN_MOTION_DDOT":0},{"OBJECT_NAME":"STARLINK-36729","OBJECT_ID":"2026-036B","EPOCH":"2026-03-12T06:00:00.999648","MEAN_MOTION":15.74396539,"ECCENTRICITY":0.000166,"INCLINATION":42.9995,"RA_OF_ASC_NODE":234.1685,"ARG_OF_PERICENTER":270.2545,"MEAN_ANOMALY":142.5008,"EPHEMERIS_TYPE":0,"CLASSIFICATION_TYPE":"U","NORAD_CAT_ID":67905,"ELEMENT_SET_NO":999,"REV_AT_EPOCH":405,"BSTAR":-0.014504814,"MEAN_MOTION_DOT":-0.01885974,"MEAN_MOTION_DDOT":0}]
