STARLINK-36363          
1 67890U 26035M   26071.25001157  .00106170  00000+0  54921-3 0  9991
2 67890  97.2742   3.7481 0000761 131.9879 288.9783 15.80780245  4164
STARLINK-36816          
1 67891U 26035N   26071.25001157  .00050733  00000+0  26413-3 0  9990
2 67891  97.2729   3.7693 0000897  95.3304  25.4393 15.80811132  4061
STARLINK-36813          
1 67892U 26035P   26071.25001157  .00144257  00000+0  74330-3 0  9997
2 67892  97.2706   3.7573 0001599  91.8419   3.3108 15.80761849  4172
STARLINK-36803          
1 67893U 26035Q   26071.25001157  .00129573  00000+0  66850-3 0  9990
2 67893  97.2732   3.7505 0000348  84.1005 345.4029 15.80773421  4164
STARLINK-36846          
1 67894U 26035R   26071.25001157  .00079160  00000+0  41081-3 0  9996
2 67894  97.2726   3.7536 0001575 101.5571 336.5110 15.80786633  4168
STARLINK-36866          
1 67895U 26035S   26071.25001157 -.00009322  00000+0 -47932-4 0  9994
2 67895  97.2715   3.7550 0000871 117.1439 325.1772 15.80839546  4167
STARLINK-36877          
1 67896U 26035T   26071.25001157  .00098039  00000+0  50775-3 0  9994
2 67896  97.2728   3.7518 0001282  86.7020 347.0976 15.80776703  4164
STARLINK-36870          
1 67897U 26035U   26071.25001157 -.00029458  00000+0 -15316-3 0  9998
2 67897  97.2713   3.7564 0000518  99.2868 347.2804 15.80876763  4169
STARLINK-36810          
1 67898U 26035V   26071.25001157  .00070878  00000+0  36809-3 0  9999
2 67898  97.2714   3.7573 0001070  77.1767  13.7007 15.80797038  4176
STARLINK-36878          
1 67899U 26035W   26071.25001157  .00054946  00000+0  28549-3 0  9990
2 67899  97.2711   3.7608 0000739 139.6644 319.7046 15.80839552  4172
STARLINK-36361          
1 67900U 26035X   26071.25001157  .00128095  00000+0  66098-3 0  9991
2 67900  97.2730   3.7629 0001434  92.4160  11.2774 15.80773738  4176
STARLINK-36336          
1 67901U 26035Y   26071.25001157  .00011180  00000+0  58969-4 0  9997
2 67901  97.2737   3.7697 0001486  91.3062  25.1925 15.80838540  4215
STARLINK-36876          
1 67902U 26035Z   26071.25001157  .00132738  00000+0  68458-3 0  9994
2 67902  97.2737   3.7663 0001410  96.7873  11.1777 15.80772781  4174
STARLINK-36257          
1 67903U 26035AA  26071.25001157  .00135226  00000+0  69710-3 0  9992
2 67903  97.2736   3.7668 0000939 102.4003   9.8325 15.80776078  4215
STARLINK-36814          
1 67904U 26036A   26071.25001157 -.01941490  00000+0 -21837-1 0  9991
2 67904  42.9991 234.4331 0001778 267.0714  40.0351 15.64909628  4054
STARLINK-36729          
1 67905U 26036B   26071.25001157 -.01885974  00000+0 -14505-1 0  9990
2 67905  42.9995 234.1685 0001660 270.2545 142.5008 15.74396539  4055
